OBJECT_NAME,OBJECT_ID,EPOCH,MEAN_MOTION,ECCENTRICITY,INCLINATION,RA_OF_ASC_NODE,ARG_OF_PERICENTER,MEAN_ANOMALY,EPHEMERIS_TYPE,CLASSIFICATION_TYPE,NORAD_CAT_ID,ELEMENT_SET_NO,REV_AT_EPOCH,BSTAR,MEAN_MOTION_DOT,MEAN_MOTION_DDOT
ONEWEB-0400,2021-132M,2026-06-17T23:53:00.121920,13.18686419,.00018913,87.9171,335.2835,98.0755,262.0591,0,U,50480,999,22171,.50758393E-4,.33E-6,0
ONEWEB-0401,2021-132N,2026-06-18T17:21:54.986112,13.18685870,.0001652,87.9174,335.1360,89.5455,270.5866,0,U,50481,999,22181,.2925E-3,.128E-5,0
ONEWEB-0402,2021-132P,2026-06-18T16:28:30.538848,13.18686753,.0001481,87.9171,335.1325,81.6818,278.4482,0,U,50482,999,22183,.13902E-3,.68E-6,0
ONEWEB-0403,2021-132Q,2026-06-18T17:04:55.245792,13.18685407,.0001958,87.9171,335.1518,90.5516,269.5841,0,U,50483,999,22179,-.24314E-4,.3E-7,0
ONEWEB-0404,2021-132R,2026-06-18T15:05:06.472032,13.11419149,.0002129,87.8888,20.7804,82.4546,277.6824,0,U,50484,999,21588,-.41882E-3,-.136E-5,0
ONEWEB-0405,2021-132S,2026-06-18T17:24:20.876832,13.18687325,.0002089,87.9174,335.1338,104.8834,255.2529,0,U,50485,999,22219,.10779E-3,.55E-6,0
ONEWEB-0406,2021-132T,2026-06-18T17:12:12.340800,13.18685818,.0002337,87.9169,335.1517,85.2373,274.9026,0,U,50486,999,22182,.24335E-3,.109E-5,0
ONEWEB-0407,2021-132U,2026-06-18T17:02:30.924096,13.18686783,.0001674,87.9173,335.1453,97.0616,263.0707,0,U,50487,999,22176,.16206E-3,.77E-6,0
ONEWEB-0409,2021-132V,2026-06-18T15:02:39.167808,13.11418298,.0002088,87.8892,20.7688,85.8947,274.2419,0,U,50488,999,21577,-.13023E-2,-.449E-5,0
ONEWEB-0412,2021-132W,2026-06-18T11:17:42.357696,13.18685446,.0001619,87.9169,335.2009,86.3338,273.7979,0,U,50489,999,22182,.14083E-3,.68E-6,0
ONEWEB-0413,2021-132X,2026-06-18T00:29:26.708928,13.18684854,.00015653,87.9160,335.2899,91.8973,268.2338,0,U,50490,999,22170,-.28152134E-3,-.98E-6,0
ONEWEB-0414,2021-132Y,2026-06-18T16:30:55.848096,13.18686226,.0001809,87.9175,335.1385,87.8492,272.2847,0,U,50491,999,22182,.82778E-4,.46E-6,0
ONEWEB-0417,2021-132Z,2026-06-18T00:19:42.596544,13.18685608,.00020746,87.9163,335.2921,90.5903,269.5467,0,U,50492,999,22171,.77566848E-4,.43E-6,0
ONEWEB-0418,2021-132AA,2026-06-18T16:57:25.297056,13.18685321,.0002144,87.9171,335.1541,91.0065,269.1313,0,U,50493,999,22186,.70692E-4,.41E-6,0
ONEWEB-0419,2021-132AB,2026-06-18T17:24:15.176160,13.18666127,.0002147,87.9172,335.1501,96.7118,263.4258,0,U,50494,999,22178,.22399E-3,.101E-5,0
ONEWEB-0420,2021-132AC,2026-06-18T16:33:21.076128,13.18686261,.0001679,87.9164,335.1598,97.1573,262.9750,0,U,50495,999,22177,-.33349E-4,0,0
ONEWEB-0421,2021-132AD,2026-06-18T00:00:16.975008,13.18685054,.00017518,87.9168,335.2947,81.2154,278.9176,0,U,50496,999,22172,-.24099997E-4,.3E-7,0
ONEWEB-0424,2021-132AE,2026-06-18T17:17:03.831936,13.18685600,.0002133,87.9172,335.1497,100.1021,260.0352,0,U,50497,999,22184,.21077E-3,.96E-6,0
ONEWEB-0426,2021-132AF,2026-06-18T10:49:46.254720,13.18685608,.0002186,87.9171,335.1941,75.6589,284.4786,0,U,50498,999,22175,-.7627E-3,-.288E-5,0
ONEWEB-0427,2021-132AG,2026-06-18T17:14:38.213376,13.18685429,.0002052,87.9173,335.1299,89.8424,270.2943,0,U,50499,999,22181,.19747E-3,.91E-6,0
ONEWEB-0429,2021-132AH,2026-06-18T16:55:12.533088,13.18686284,.0001741,87.9165,335.1567,94.9816,265.1515,0,U,50500,999,22178,.15028E-3,.72E-6,0
ONEWEB-0430,2021-132AJ,2026-06-18T16:38:12.340032,13.18686777,.0001844,87.9165,335.1575,101.4612,258.6728,0,U,50501,999,22182,.29883E-4,.25E-6,0
ONEWEB-0432,2021-132AK,2026-06-18T10:25:35.400000,13.17154325,.0002217,87.9169,335.1876,108.1965,251.9407,0,U,50502,999,22174,.92711E-4,.49E-6,0
ONEWEB-0440,2021-132AL,2026-06-18T17:07:20.815968,13.18685742,.0001583,87.9172,335.1496,88.1095,272.0218,0,U,50503,999,22177,.18439E-3,.86E-6,0
ONEWEB-0450,2021-132AM,2026-06-18T16:57:50.442048,13.18686453,.0001709,87.9163,335.1560,97.7548,262.3778,0,U,50504,999,22180,.78806E-4,.44E-6,0
ONEWEB-0410,2022-012A,2026-06-18T01:15:42.792768,13.17648483,.00030237,87.9142,5.6850,72.6524,287.4938,0,U,51622,999,21381,.22625656E-4,.22E-6,0
ONEWEB-0411,2022-012B,2026-06-18T14:47:53.647296,13.10330773,.0001688,87.8837,35.9818,101.4219,258.7098,0,U,51623,999,20947,-.83744E-2,-.2908E-4,0
ONEWEB-0415,2022-012C,2026-06-18T14:43:05.195712,13.10341704,.0001827,87.8832,35.9817,91.7828,268.3509,0,U,51624,999,20947,-.70077E-2,-.2432E-4,0
ONEWEB-0416,2022-012D,2026-06-18T14:59:55.744800,13.10308506,.0002198,87.8828,35.9964,89.3401,270.7978,0,U,51625,999,20951,-.13879E-1,-.4825E-4,0
ONEWEB-0422,2022-012E,2026-06-18T06:58:20.547840,13.17648706,.0001205,87.9140,5.6388,89.6428,270.4841,0,U,51626,999,21395,-.62279E-4,-.11E-6,0
