ONEWEB-0400             
1 50480U 21132M   26168.99514030  .00000033  00000+0  50758-4 0  9994
2 50480  87.9171 335.2835 0001891  98.0755 262.0591 13.18686419221719
ONEWEB-0401             
1 50481U 21132N   26169.72355308  .00000128  00000+0  29250-3 0  9995
2 50481  87.9174 335.1360 0001652  89.5455 270.5866 13.18685870221812
ONEWEB-0402             
1 50482U 21132P   26169.68646457  .00000068  00000+0  13902-3 0  9999
2 50482  87.9171 335.1325 0001481  81.6818 278.4482 13.18686753221831
ONEWEB-0403             
1 50483U 21132Q   26169.71175053  .00000003  00000+0 -24314-4 0  9993
2 50483  87.9171 335.1518 0001958  90.5516 269.5841 13.18685407221799
ONEWEB-0404             
1 50484U 21132R   26169.62854713 -.00000136  00000+0 -41882-3 0  9997
2 50484  87.8888  20.7804 0002129  82.4546 277.6824 13.11419149215888
ONEWEB-0405             
1 50485U 21132S   26169.72524163  .00000055  00000+0  10779-3 0  9991
2 50485  87.9174 335.1338 0002089 104.8834 255.2529 13.18687325222193
ONEWEB-0406             
1 50486U 21132T   26169.71680950  .00000109  00000+0  24335-3 0  9991
2 50486  87.9169 335.1517 0002337  85.2373 274.9026 13.18685818221827
ONEWEB-0407             
1 50487U 21132U   26169.71008014  .00000077  00000+0  16206-3 0  9999
2 50487  87.9173 335.1453 0001674  97.0616 263.0707 13.18686783221766
ONEWEB-0409             
1 50488U 21132V   26169.62684222 -.00000449  00000+0 -13023-2 0  9999
2 50488  87.8892  20.7688 0002088  85.8947 274.2419 13.11418298215778
ONEWEB-0412             
1 50489U 21132W   26169.47062914  .00000068  00000+0  14083-3 0  9994
2 50489  87.9169 335.2009 0001619  86.3338 273.7979 13.18685446221823
ONEWEB-0413             
1 50490U 21132X   26169.02044802 -.00000098  00000+0 -28152-3 0  9990
2 50490  87.9160 335.2899 0001565  91.8973 268.2338 13.18684854221706
ONEWEB-0414             
1 50491U 21132Y   26169.68814639  .00000046  00000+0  82778-4 0  9992
2 50491  87.9175 335.1385 0001809  87.8492 272.2847 13.18686226221822
ONEWEB-0417             
1 50492U 21132Z   26169.01368746  .00000043  00000+0  77567-4 0  9990
2 50492  87.9163 335.2921 0002074  90.5903 269.5467 13.18685608221718
ONEWEB-0418             
1 50493U 21132AA  26169.70654279  .00000041  00000+0  70692-4 0  9996
2 50493  87.9171 335.1541 0002144  91.0065 269.1313 13.18685321221862
ONEWEB-0419             
1 50494U 21132AB  26169.72517565  .00000101  00000+0  22399-3 0  9992
2 50494  87.9172 335.1501 0002147  96.7118 263.4258 13.18666127221783
ONEWEB-0420             
1 50495U 21132AC  26169.68982727  .00000000  00000+0 -33349-4 0  9991
2 50495  87.9164 335.1598 0001679  97.1573 262.9750 13.18686261221771
ONEWEB-0421             
1 50496U 21132AD  26169.00019647  .00000003  00000+0 -24100-4 0  9998
2 50496  87.9168 335.2947 0001751  81.2154 278.9176 13.18685054221728
ONEWEB-0424             
1 50497U 21132AE  26169.72018324  .00000096  00000+0  21077-3 0  9999
2 50497  87.9172 335.1497 0002133 100.1021 260.0352 13.18685600221840
ONEWEB-0426             
1 50498U 21132AF  26169.45122980 -.00000288  00000+0 -76270-3 0  9994
2 50498  87.9171 335.1941 0002186  75.6589 284.4786 13.18685608221756
ONEWEB-0427             
1 50499U 21132AG  26169.71849784  .00000091  00000+0  19747-3 0  9998
2 50499  87.9173 335.1299 0002052  89.8424 270.2943 13.18685429221818
ONEWEB-0429             
1 50500U 21132AH  26169.70500617  .00000072  00000+0  15028-3 0  9996
2 50500  87.9165 335.1567 0001741  94.9816 265.1515 13.18686284221780
ONEWEB-0430             
1 50501U 21132AJ  26169.69319838  .00000025  00000+0  29883-4 0  9991
2 50501  87.9165 335.1575 0001844 101.4612 258.6728 13.18686777221827
ONEWEB-0432             
1 50502U 21132AK  26169.43443750  .00000049  00000+0  92711-4 0  9991
2 50502  87.9169 335.1876 0002217 108.1965 251.9407 13.17154325221745
ONEWEB-0440             
1 50503U 21132AL  26169.71343537  .00000086  00000+0  18439-3 0  9990
2 50503  87.9172 335.1496 0001583  88.1095 272.0218 13.18685742221774
ONEWEB-0450             
1 50504U 21132AM  26169.70683382  .00000044  00000+0  78806-4 0  9994
2 50504  87.9163 335.1560 0001709  97.7548 262.3778 13.18686453221803
ONEWEB-0410             
1 51622U 22012A   26169.05257862  .00000022  00000+0  22626-4 0  9997
2 51622  87.9142   5.6850 0003023  72.6524 287.4938 13.17648483213818
ONEWEB-0411             
1 51623U 22012B   26169.61659314 -.00002908  00000+0 -83744-2 0  9991
2 51623  87.8837  35.9818 0001688 101.4219 258.7098 13.10330773209474
ONEWEB-0415             
1 51624U 22012C   26169.61325458 -.00002432  00000+0 -70077-2 0  9998
2 51624  87.8832  35.9817 0001827  91.7828 268.3509 13.10341704209471
ONEWEB-0416             
1 51625U 22012D   26169.62495075 -.00004825  00000+0 -13879-1 0  9997
2 51625  87.8828  35.9964 0002198  89.3401 270.7978 13.10308506209517
ONEWEB-0422             
1 51626U 22012E   26169.29051560 -.00000011  00000+0 -62279-4 0  9992
2 51626  87.9140   5.6388 0001205  89.6428 270.4841 13.17648706213955
